[{"OBJECT_NAME":"STARLINK-5256","OBJECT_ID":"2022-141U","EPOCH":"2026-03-09T06:24:36.907776","MEAN_MOTION":15.08869984,"ECCENTRICITY":0.00016823,"INCLINATION":53.2185,"RA_OF_ASC_NODE":6.0286,"ARG_OF_PERICENTER":85.0951,"MEAN_ANOMALY":275.0233,"EPHEMERIS_TYPE":0,"CLASSIFICATION_TYPE":"U","NORAD_CAT_ID":54175,"ELEMENT_SET_NO":999,"REV_AT_EPOCH":18579,"BSTAR":0.00051536115,"MEAN_MOTION_DOT":7.93e-5,"MEAN_MOTION_DDOT":0},{"OBJECT_NAME":"OBJECT H","OBJECT_ID":"2017-042H","EPOCH":"2026-03-09T21:54:40.929408","MEAN_MOTION":15.07257911,"ECCENTRICITY":0.00117342,"INCLINATION":97.4058,"RA_OF_ASC_NODE":233.05,"ARG_OF_PERICENTER":93.954,"MEAN_ANOMALY":266.303,"EPHEMERIS_TYPE":0,"CLASSIFICATION_TYPE":"U","NORAD_CAT_ID":42832,"ELEMENT_SET_NO":999,"REV_AT_EPOCH":47198,"BSTAR":0.00041037265,"MEAN_MOTION_DOT":6.138e-5,"MEAN_MOTION_DDOT":0}]
